TELSTAR 12V             
1 41036U 15068A   26195.81294840 -.00000128  00000+0  00000+0 0  9993
2 41036   0.0030 116.4676 0002080 353.7995 100.0608  1.00270988 38901
ELEKTRO-L 2             
1 41105U 15074A   26195.41356580 -.00000129  00000+0  00000+0 0  9994
2 41105   6.7595  70.1832 0001026 212.6794 143.7919  1.00272099 38775
COSMOS 2513             
1 41121U 15075A   26195.90649836 -.00000147  00000+0  00000+0 0  9996
2 41121   0.0646 103.7923 0002507 343.4046 252.1334  1.00270963 38829
EXPRESS-AMU1            
1 41191U 15082A   26195.49492598  .00000148  00000+0  00000+0 0  9996
2 41191   0.0207  74.9447 0002322  48.3531  23.3221  1.00273200 38543
GAOFEN-4                
1 41194U 15083A   26194.68502446 -.00000340  00000+0  00000+0 0  9999
2 41194   0.4223  83.7871 0003940 124.9375  75.1281  1.00274923 38792
BELINTERSAT-1           
1 41238U 16001A   26195.86358323  .00000098  00000+0  00000+0 0  9992
2 41238   0.0552 249.6638 0001842 181.8292 223.6075  1.00272993 38511
IRNSS-1E                
1 41241U 16003A   26194.04240410 -.00000321  00000+0  00000+0 0  9994
2 41241  33.2887  59.3748 0018977 176.6620 181.8769  1.00278688 38338
EUTELSAT 9B             
1 41310U 16005A   26195.77467397  .00000053  00000+0  00000+0 0  9990
2 41310   0.0357  60.2932 0001026  43.5033 116.6939  1.00270507 38395
SES-9                   
1 41380U 16013A   26195.79441750 -.00000353  00000+0  00000+0 0  9997
2 41380   0.0151 336.1182 0002035 126.6757 224.1450  1.00269256 37710
EUTELSAT 65 WEST A      
1 41382U 16014A   26195.04713514 -.00000282  00000+0  00000+0 0  9999
2 41382   0.0620 320.8960 0002022 154.4689 128.3252  1.00269606 37798
IRNSS-1F                
1 41384U 16015A   26195.83100340  .00000145  00000+0  00000+0 0  9993
2 41384   5.4163  96.1431 0017692 180.1147 348.1022  1.00266076 37943
BEIDOU-2 IGSO-6         
1 41434U 16021A   26177.11016981 -.00000145  00000+0  00000+0 0  9995
2 41434  60.2385  37.9495 0057558 231.0163 137.2672  1.00258926 37578
IRNSS-1G                
1 41469U 16027A   26195.65601906 -.00000346  00000+0  00000+0 0  9998
2 41469   5.2614  96.8395 0005967  10.5808 190.9435  1.00271413 37452
JCSAT-2B                
1 41471U 16028A   26195.80343088 -.00000174  00000+0  00000+0 0  9992
2 41471   0.0176  35.3387 0000788  77.3581 263.1953  1.00270100 37400
THAICOM 8               
1 41552U 16031A   26195.36073796 -.00000128  00000+0  00000+0 0  9992
2 41552   0.0745  49.0681 0002940  25.2774  66.2255  1.00270441 36997
INTELSAT 31 (IS-31)     
1 41581U 16035A   26194.89862426 -.00000156  00000+0  00000+0 0  9992
2 41581   0.0229 276.7908 0001186  13.0074 230.4271  1.00270917 36953
BEIDOU-2 G7             
1 41586U 16037A   26195.79485083 -.00000363  00000+0  00000+0 0  9999
2 41586   1.7856  69.4854 0005942 359.4841 260.3687  1.00273683  7169
ABS-2A (MONGOLSAT-1)    
1 41588U 16038A   26195.78774412 -.00000092  00000+0  00000+0 0  9997
2 41588   0.0131  36.4824 0001223  22.9492 231.4896  1.00269061 36980
EUTELSAT 117 WEST B     
1 41589U 16038B   26194.92184275 -.00000017  00000+0  00000+0 0  9992
2 41589   0.0083 162.9812 0000266 316.7358  26.9360  1.00269922 36934
BRISAT                  
1 41591U 16039A   26195.58882668  .00000000  00000+0  00000+0 0  9991
2 41591   0.0189  30.7279 0001898  84.5968 179.5972  1.00268660 36888
ECHOSTAR 18             
1 41592U 16039B   26195.19044265 -.00000289  00000+0  00000+0 0  9992
2 41592   0.0179  38.9958 0001365  85.5892 174.6593  1.00271148 36899
MUOS-5                  
1 41622U 16041A   26194.96773505 -.00000136  00000+0  00000+0 0  9990
2 41622   2.1476 302.1882 0199501 260.6333 332.2567  1.00271761 37350
TIANTONG-1 1            
1 41725U 16048A   26195.73079127 -.00000327  00000+0  00000+0 0  9998
2 41725   3.9011  43.6230 0004954  58.3212 195.1076  1.00269025 36548
JCSAT-16                
1 41729U 16050A   26195.80143752 -.00000260  00000+0  00000+0 0  9995
2 41729   0.0178  36.8384 0000846  90.6148 237.6656  1.00270551 36341
USA 270                 
1 41744U 16052A   26195.45234249 -.00000362  00000+0  00000+0 0  9990
2 41744   4.2649  76.8388 0009408 101.7031  42.7683  1.00267800 28409
USA 271                 
1 41745U 16052B   26195.12317037 -.00000300  00000+0  00000+0 0  9994
2 41745   4.2370  76.9135 0011085 165.9764 191.3847  1.00268559 28181
INTELSAT 36 (IS-36)     
1 41747U 16053A   26195.83522432 -.00000032  00000+0  00000+0 0  9994
2 41747   0.0105  29.0871 0002409 310.4577 322.3027  1.00270291 36235
INSAT-3DR               
1 41752U 16054A   26195.82553707 -.00000085  00000+0  00000+0 0  9997
2 41752   0.0689  88.6872 0010589 181.2817  33.9024  1.00270683 36090
GSAT-18                 
1 41793U 16060A   26195.78757080 -.00000085  00000+0  00000+0 0  9994
2 41793   0.0343  90.0831 0005238 348.4446 211.6055  1.00271215 35803
SKY MUSTER 2 (NBN1B)    
1 41794U 16060B   26195.73029293  .00000000  00000+0  00000+0 0  9994
2 41794   0.0200  47.5294 0001593  74.1319 218.6380  1.00269327 35795
HIMAWARI-9              
1 41836U 16064A   26195.58689512  .00000000  00000+0  00000+0 0  9994
2 41836   0.0126 316.2514 0002288 222.2337 105.9965  1.00265737 35482
SHIJIAN-17 (SJ-17)      
1 41838U 16065A   26195.81131757  .00000061  00000+0  00000+0 0  9993
2 41838   5.8209  72.2691 0001859  45.4823 301.8411  0.99865478 35479
